{
"type": "FeatureCollection",
"name": "data-coffeeshop",
"crs": { "type": "name", "properties": { "name": "urn:ogc:def:crs:EPSG::32749" } },
"features": [
{ "type": "Feature", "properties": { "full_id": "n2322729476", "osm_id": "2322729476", "osm_type": "node", "osm_versio": "1", "osm_timest": "2013-05-28T05:18:13.000Z", "osm_uid": "1352488", "osm_user": "patbom", "osm_change": "16318877", "amenity": "cafe", "wheelchair": null, "website": null, "takeaway": null, "start_date": null, "payment_ca": null, "outdoor_se": null, "min_age": null, "internet_a": null, "internet_1": null, "ele": null, "descriptio": null, "delivery": null, "capacity": null, "brand": null, "addr_postc": null, "addr_house": null, "smoking": null, "opening_ho": null, "addr_stree": null, "addr_city": null, "name": "Domino", "internet_2": "no", "cuisine": "ice_cream", "building": null, "reservatio": null, "diet_halal": null, "layer": "amenity_cafe", "path": "Point?crs=EPSG:4326&field=full_id:string(0,0)&field=osm_id:string(0,0)&field=osm_type:string(0,0)&field=osm_version:string(0,0)&field=osm_timestamp:string(0,0)&field=osm_uid:string(0,0)&field=osm_user:string(0,0)&field=osm_changeset:string(0,0)&field=ame" }, "geometry": { "type": "Point", "coordinates": [ 797440.235922736814246, 9095921.521584352478385 ] } },
{ "type": "Feature", "properties": { "full_id": "n5044172622", "osm_id": "5044172622", "osm_type": "node", "osm_versio": "2", "osm_timest": "2026-03-17T06:29:17.000Z", "osm_uid": "2649988", "osm_user": "FajrAl", "osm_change": "179984660", "amenity": "cafe", "wheelchair": null, "website": null, "takeaway": null, "start_date": null, "payment_ca": null, "outdoor_se": null, "min_age": null, "internet_a": null, "internet_1": null, "ele": null, "descriptio": null, "delivery": null, "capacity": null, "brand": null, "addr_postc": null, "addr_house": null, "smoking": null, "opening_ho": null, "addr_stree": "Jl. Gunung Batu", "addr_city": null, "name": "RESTO NOG", "internet_2": null, "cuisine": null, "building": null, "reservatio": null, "diet_halal": null, "layer": "amenity_cafe", "path": "Point?crs=EPSG:4326&field=full_id:string(0,0)&field=osm_id:string(0,0)&field=osm_type:string(0,0)&field=osm_version:string(0,0)&field=osm_timestamp:string(0,0)&field=osm_uid:string(0,0)&field=osm_user:string(0,0)&field=osm_changeset:string(0,0)&field=ame" }, "geometry": { "type": "Point", "coordinates": [ 798642.5751809081994, 9095179.682709667831659 ] } },
{ "type": "Feature", "properties": { "full_id": "n7647357570", "osm_id": "7647357570", "osm_type": "node", "osm_versio": "4", "osm_timest": "2023-08-22T18:22:58.000Z", "osm_uid": "3199858", "osm_user": "Mateusz Konieczny - bot account", "osm_change": "140241535", "amenity": "cafe", "wheelchair": "yes", "website": "www,rumahkafejember.my.id", "takeaway": "yes", "start_date": "2015-10-09", "payment_ca": "yes", "outdoor_se": "yes", "min_age": "10", "internet_a": "Rumah Kafe Jember", "internet_1": "no", "ele": "89", "descriptio": "RUMAH KAFE JEMBER sejak 2015 Set On New Normal CERTIFIED BARISTA inside by BNSP - LSP KOPI INDONESIA KOPI yang baik adalah sehitam IBLIS panas seperti NERAKA semurni MALAIKAT dan manis kaya KAMU Karena kopi kita bisa pintar", "delivery": "yes", "capacity": "30", "brand": "Rumah Kafe", "addr_postc": "68118", "addr_house": "97", "smoking": "yes", "opening_ho": "Mo-Su 11:00-23:00", "addr_stree": "Jalan Panglima Besar Sudirman", "addr_city": "Jember", "name": "Rumah Kafe Jember", "internet_2": "wlan", "cuisine": "coffee_shop;regional", "building": null, "reservatio": null, "diet_halal": null, "layer": "amenity_cafe", "path": "Point?crs=EPSG:4326&field=full_id:string(0,0)&field=osm_id:string(0,0)&field=osm_type:string(0,0)&field=osm_version:string(0,0)&field=osm_timestamp:string(0,0)&field=osm_uid:string(0,0)&field=osm_user:string(0,0)&field=osm_changeset:string(0,0)&field=ame" }, "geometry": { "type": "Point", "coordinates": [ 798441.630268629640341, 9096903.809395994991064 ] } },
{ "type": "Feature", "properties": { "full_id": "w819172439", "osm_id": "819172439", "osm_type": "way", "osm_versio": "3", "osm_timest": "2023-08-22T18:23:05.000", "osm_uid": "3199858", "osm_user": null, "osm_change": "140241535", "amenity": "cafe", "wheelchair": "yes", "website": "https://rumahkafe.business.site", "takeaway": "yes", "start_date": "2015-10-09", "payment_ca": null, "outdoor_se": "yes", "min_age": "10", "internet_a": "Rumah Kafe Jember", "internet_1": "no", "ele": null, "descriptio": "KOPI yang baik adalah sehitam IBLIS panas seperti NERAKA semurni MALAIKAT dan manis kaya KAMU  Karena kopi kita bisa pintar  Kedai kecil ini serasa rumah sendiri, dikelola dengan senyum & tawa juga dikawal oleh barista tersertifikasi oleh BNSP", "delivery": "yes", "capacity": "30", "brand": "Rumah Kafe", "addr_postc": "68118", "addr_house": "97", "smoking": "yes", "opening_ho": null, "addr_stree": "Jalan Panglima Besar Sudirman", "addr_city": "Jember", "name": "Rumah Kafe Jember", "internet_2": "wlan", "cuisine": "regional;coffee_shop", "building": "yes", "reservatio": "recommended", "diet_halal": "yes", "layer": "Centroids", "path": "Point?crs=EPSG:4326&field=full_id:string(0,0)&field=osm_id:string(0,0)&field=osm_type:string(0,0)&field=osm_version:string(0,0)&field=osm_timestamp:string(0,0)&field=osm_uid:string(0,0)&field=osm_user:string(0,0)&field=osm_changeset:string(0,0)&field=ame" }, "geometry": { "type": "Point", "coordinates": [ 798440.251845529302955, 9096902.793646819889545 ] } },
{ "type": "Feature", "properties": { "full_id": "n3683934431", "osm_id": "3683934431", "osm_type": "node", "osm_versio": "1", "osm_timest": "2015-08-06T12:09:53.000Z", "osm_uid": "3117714", "osm_user": "rahadianerick", "osm_change": "33153498", "amenity": "cafe", "wheelchair": null, "website": null, "takeaway": null, "start_date": null, "payment_ca": null, "outdoor_se": null, "min_age": null, "internet_a": null, "internet_1": null, "ele": null, "descriptio": null, "delivery": null, "capacity": null, "brand": null, "addr_postc": null, "addr_house": null, "smoking": "yes", "opening_ho": "17:00-00:00", "addr_stree": "Jl. Mastrip", "addr_city": "Jember", "name": "Cafe Kolong", "internet_2": null, "cuisine": "snack", "building": null, "reservatio": null, "diet_halal": null, "layer": "amenity_cafe", "path": "Point?crs=EPSG:4326&field=full_id:string(0,0)&field=osm_id:string(0,0)&field=osm_type:string(0,0)&field=osm_version:string(0,0)&field=osm_timestamp:string(0,0)&field=osm_uid:string(0,0)&field=osm_user:string(0,0)&field=osm_changeset:string(0,0)&field=ame" }, "geometry": { "type": "Point", "coordinates": [ 798904.203723758226261, 9097309.697317780926824 ] } },
{ "type": "Feature", "properties": { "full_id": "n3684021882", "osm_id": "3684021882", "osm_type": "node", "osm_versio": "1", "osm_timest": "2015-08-06T12:54:39.000Z", "osm_uid": "3117714", "osm_user": "rahadianerick", "osm_change": "33154606", "amenity": "cafe", "wheelchair": null, "website": null, "takeaway": null, "start_date": null, "payment_ca": null, "outdoor_se": null, "min_age": null, "internet_a": null, "internet_1": null, "ele": null, "descriptio": null, "delivery": null, "capacity": null, "brand": null, "addr_postc": null, "addr_house": null, "smoking": null, "opening_ho": null, "addr_stree": null, "addr_city": null, "name": "Smart Cafe", "internet_2": null, "cuisine": null, "building": null, "reservatio": null, "diet_halal": null, "layer": "amenity_cafe", "path": "Point?crs=EPSG:4326&field=full_id:string(0,0)&field=osm_id:string(0,0)&field=osm_type:string(0,0)&field=osm_version:string(0,0)&field=osm_timestamp:string(0,0)&field=osm_uid:string(0,0)&field=osm_user:string(0,0)&field=osm_changeset:string(0,0)&field=ame" }, "geometry": { "type": "Point", "coordinates": [ 798949.224356562248431, 9096026.921734642237425 ] } },
{ "type": "Feature", "properties": { "full_id": "n6486973785", "osm_id": "6486973785", "osm_type": "node", "osm_versio": "2", "osm_timest": "2026-03-17T06:29:17.000Z", "osm_uid": "2649988", "osm_user": "FajrAl", "osm_change": "179984660", "amenity": "cafe", "wheelchair": null, "website": null, "takeaway": null, "start_date": null, "payment_ca": null, "outdoor_se": null, "min_age": null, "internet_a": null, "internet_1": null, "ele": null, "descriptio": null, "delivery": null, "capacity": null, "brand": null, "addr_postc": null, "addr_house": null, "smoking": null, "opening_ho": null, "addr_stree": null, "addr_city": null, "name": "Stasiunkopi - everyday coffee", "internet_2": "wlan", "cuisine": null, "building": null, "reservatio": null, "diet_halal": null, "layer": "amenity_cafe", "path": "Point?crs=EPSG:4326&field=full_id:string(0,0)&field=osm_id:string(0,0)&field=osm_type:string(0,0)&field=osm_version:string(0,0)&field=osm_timestamp:string(0,0)&field=osm_uid:string(0,0)&field=osm_user:string(0,0)&field=osm_changeset:string(0,0)&field=ame" }, "geometry": { "type": "Point", "coordinates": [ 799190.84964913863223, 9095959.153295518830419 ] } },
{ "type": "Feature", "properties": { "full_id": "n11898263232", "osm_id": "11898263232", "osm_type": "node", "osm_versio": "1", "osm_timest": "2024-05-12T09:34:58.000Z", "osm_uid": "21480809", "osm_user": "panduwii", "osm_change": "151216257", "amenity": "cafe", "wheelchair": null, "website": null, "takeaway": null, "start_date": null, "payment_ca": null, "outdoor_se": "yes", "min_age": null, "internet_a": null, "internet_1": null, "ele": null, "descriptio": null, "delivery": null, "capacity": null, "brand": null, "addr_postc": null, "addr_house": null, "smoking": null, "opening_ho": null, "addr_stree": null, "addr_city": null, "name": "Villo Coffee", "internet_2": "wlan", "cuisine": "coffee_shop;asian", "building": null, "reservatio": null, "diet_halal": null, "layer": "amenity_cafe", "path": "Point?crs=EPSG:4326&field=full_id:string(0,0)&field=osm_id:string(0,0)&field=osm_type:string(0,0)&field=osm_version:string(0,0)&field=osm_timestamp:string(0,0)&field=osm_uid:string(0,0)&field=osm_user:string(0,0)&field=osm_changeset:string(0,0)&field=ame" }, "geometry": { "type": "Point", "coordinates": [ 798991.231666950974613, 9095704.744859836995602 ] } },
{ "type": "Feature", "properties": { "full_id": "w635105418", "osm_id": "635105418", "osm_type": "way", "osm_versio": "2", "osm_timest": "2023-10-17T06:52:08.000", "osm_uid": "20478072", "osm_user": null, "osm_change": "142696702", "amenity": "cafe", "wheelchair": null, "website": null, "takeaway": null, "start_date": null, "payment_ca": null, "outdoor_se": "no", "min_age": null, "internet_a": null, "internet_1": null, "ele": null, "descriptio": null, "delivery": null, "capacity": null, "brand": null, "addr_postc": "68121", "addr_house": null, "smoking": null, "opening_ho": "08:00-00:00", "addr_stree": "Jl. Riau, Krajan Barat, Sumbersari, Kec. Sumbersari", "addr_city": "Kabupaten Jember", "name": "Warung Kopi Arongan", "internet_2": "wlan", "cuisine": "coffee_shop", "building": "yes", "reservatio": null, "diet_halal": null, "layer": "Centroids", "path": "Point?crs=EPSG:4326&field=full_id:string(0,0)&field=osm_id:string(0,0)&field=osm_type:string(0,0)&field=osm_version:string(0,0)&field=osm_timestamp:string(0,0)&field=osm_uid:string(0,0)&field=osm_user:string(0,0)&field=osm_changeset:string(0,0)&field=cui" }, "geometry": { "type": "Point", "coordinates": [ 800277.535442111315206, 9096137.693005178123713 ] } },
{ "type": "Feature", "properties": { "full_id": "w1225926586", "osm_id": "1225926586", "osm_type": "way", "osm_versio": "1", "osm_timest": "2023-11-22T15:09:06.000", "osm_uid": "20108107", "osm_user": null, "osm_change": "144330318", "amenity": "cafe", "wheelchair": null, "website": null, "takeaway": null, "start_date": null, "payment_ca": null, "outdoor_se": null, "min_age": null, "internet_a": null, "internet_1": null, "ele": null, "descriptio": null, "delivery": null, "capacity": null, "brand": null, "addr_postc": null, "addr_house": null, "smoking": null, "opening_ho": "24/7", "addr_stree": null, "addr_city": null, "name": "Kopi Kampus", "internet_2": "wlan", "cuisine": "coffee_shop", "building": "yes", "reservatio": null, "diet_halal": null, "layer": "Centroids", "path": "Point?crs=EPSG:4326&field=full_id:string(0,0)&field=osm_id:string(0,0)&field=osm_type:string(0,0)&field=osm_version:string(0,0)&field=osm_timestamp:string(0,0)&field=osm_uid:string(0,0)&field=osm_user:string(0,0)&field=osm_changeset:string(0,0)&field=cui" }, "geometry": { "type": "Point", "coordinates": [ 801239.730373748345301, 9098107.08956390991807 ] } },
{ "type": "Feature", "properties": { "full_id": "w1225926807", "osm_id": "1225926807", "osm_type": "way", "osm_versio": "1", "osm_timest": "2023-11-22T15:10:40.000", "osm_uid": "20108107", "osm_user": null, "osm_change": "144330380", "amenity": "cafe", "wheelchair": null, "website": null, "takeaway": null, "start_date": null, "payment_ca": null, "outdoor_se": null, "min_age": null, "internet_a": null, "internet_1": null, "ele": null, "descriptio": null, "delivery": null, "capacity": null, "brand": null, "addr_postc": null, "addr_house": null, "smoking": null, "opening_ho": "24/7", "addr_stree": null, "addr_city": null, "name": "Bento Kopi Jember", "internet_2": "wlan", "cuisine": "coffee_shop", "building": "yes", "reservatio": null, "diet_halal": null, "layer": "Centroids", "path": "Point?crs=EPSG:4326&field=full_id:string(0,0)&field=osm_id:string(0,0)&field=osm_type:string(0,0)&field=osm_version:string(0,0)&field=osm_timestamp:string(0,0)&field=osm_uid:string(0,0)&field=osm_user:string(0,0)&field=osm_changeset:string(0,0)&field=cui" }, "geometry": { "type": "Point", "coordinates": [ 801258.694742038846016, 9098143.714401388540864 ] } },
{ "type": "Feature", "properties": { "full_id": "w1225927185", "osm_id": "1225927185", "osm_type": "way", "osm_versio": "1", "osm_timest": "2023-11-22T15:13:03.000", "osm_uid": "20108107", "osm_user": null, "osm_change": "144330452", "amenity": "cafe", "wheelchair": null, "website": null, "takeaway": null, "start_date": null, "payment_ca": null, "outdoor_se": null, "min_age": null, "internet_a": null, "internet_1": null, "ele": null, "descriptio": null, "delivery": null, "capacity": null, "brand": null, "addr_postc": null, "addr_house": null, "smoking": null, "opening_ho": null, "addr_stree": null, "addr_city": null, "name": "Firmisu Kopi", "internet_2": null, "cuisine": "coffee_shop", "building": "yes", "reservatio": null, "diet_halal": null, "layer": "Centroids", "path": "Point?crs=EPSG:4326&field=full_id:string(0,0)&field=osm_id:string(0,0)&field=osm_type:string(0,0)&field=osm_version:string(0,0)&field=osm_timestamp:string(0,0)&field=osm_uid:string(0,0)&field=osm_user:string(0,0)&field=osm_changeset:string(0,0)&field=cui" }, "geometry": { "type": "Point", "coordinates": [ 801410.460623193299398, 9098083.011843590065837 ] } },
{ "type": "Feature", "properties": { "full_id": "w364365553", "osm_id": "364365553", "osm_type": "way", "osm_versio": "3", "osm_timest": "2019-06-18T08:11:04.000", "osm_uid": "8072077", "osm_user": null, "osm_change": "71356206", "amenity": "cafe", "wheelchair": null, "website": null, "takeaway": null, "start_date": null, "payment_ca": null, "outdoor_se": null, "min_age": null, "internet_a": null, "internet_1": null, "ele": null, "descriptio": null, "delivery": null, "capacity": null, "brand": null, "addr_postc": "68121", "addr_house": "88", "smoking": "yes", "opening_ho": "00:00-23:59", "addr_stree": "Jalan Jawa", "addr_city": "Jember", "name": "Campus Resto", "internet_2": "wlan", "cuisine": "indonesian_Food", "building": null, "reservatio": null, "diet_halal": null, "layer": "Centroids", "path": "Point?crs=EPSG:4326&field=full_id:string(0,0)&field=osm_id:string(0,0)&field=osm_type:string(0,0)&field=osm_version:string(0,0)&field=osm_timestamp:string(0,0)&field=osm_uid:string(0,0)&field=osm_user:string(0,0)&field=osm_changeset:string(0,0)&field=ame" }, "geometry": { "type": "Point", "coordinates": [ 798942.140865446766838, 9096080.59864660166204 ] } },
{ "type": "Feature", "properties": { "full_id": "w635105418", "osm_id": "635105418", "osm_type": "way", "osm_versio": "2", "osm_timest": "2023-10-17T06:52:08.000", "osm_uid": "20478072", "osm_user": null, "osm_change": "142696702", "amenity": "cafe", "wheelchair": null, "website": null, "takeaway": null, "start_date": null, "payment_ca": null, "outdoor_se": "no", "min_age": null, "internet_a": null, "internet_1": null, "ele": null, "descriptio": null, "delivery": null, "capacity": null, "brand": null, "addr_postc": "68121", "addr_house": null, "smoking": null, "opening_ho": "08:00-00:00", "addr_stree": "Jl. Riau, Krajan Barat, Sumbersari, Kec. Sumbersari", "addr_city": "Kabupaten Jember", "name": "Warung Kopi Arongan", "internet_2": "wlan", "cuisine": "coffee_shop", "building": "yes", "reservatio": null, "diet_halal": null, "layer": "Centroids", "path": "Point?crs=EPSG:4326&field=full_id:string(0,0)&field=osm_id:string(0,0)&field=osm_type:string(0,0)&field=osm_version:string(0,0)&field=osm_timestamp:string(0,0)&field=osm_uid:string(0,0)&field=osm_user:string(0,0)&field=osm_changeset:string(0,0)&field=ame" }, "geometry": { "type": "Point", "coordinates": [ 800277.535442111315206, 9096137.693005178123713 ] } },
{ "type": "Feature", "properties": { "full_id": "w1225926586", "osm_id": "1225926586", "osm_type": "way", "osm_versio": "1", "osm_timest": "2023-11-22T15:09:06.000", "osm_uid": "20108107", "osm_user": null, "osm_change": "144330318", "amenity": "cafe", "wheelchair": null, "website": null, "takeaway": null, "start_date": null, "payment_ca": null, "outdoor_se": null, "min_age": null, "internet_a": null, "internet_1": null, "ele": null, "descriptio": null, "delivery": null, "capacity": null, "brand": null, "addr_postc": null, "addr_house": null, "smoking": null, "opening_ho": "24/7", "addr_stree": null, "addr_city": null, "name": "Kopi Kampus", "internet_2": "wlan", "cuisine": "coffee_shop", "building": "yes", "reservatio": null, "diet_halal": null, "layer": "Centroids", "path": "Point?crs=EPSG:4326&field=full_id:string(0,0)&field=osm_id:string(0,0)&field=osm_type:string(0,0)&field=osm_version:string(0,0)&field=osm_timestamp:string(0,0)&field=osm_uid:string(0,0)&field=osm_user:string(0,0)&field=osm_changeset:string(0,0)&field=ame" }, "geometry": { "type": "Point", "coordinates": [ 801239.730373748345301, 9098107.08956390991807 ] } },
{ "type": "Feature", "properties": { "full_id": "w1225926807", "osm_id": "1225926807", "osm_type": "way", "osm_versio": "1", "osm_timest": "2023-11-22T15:10:40.000", "osm_uid": "20108107", "osm_user": null, "osm_change": "144330380", "amenity": "cafe", "wheelchair": null, "website": null, "takeaway": null, "start_date": null, "payment_ca": null, "outdoor_se": null, "min_age": null, "internet_a": null, "internet_1": null, "ele": null, "descriptio": null, "delivery": null, "capacity": null, "brand": null, "addr_postc": null, "addr_house": null, "smoking": null, "opening_ho": "24/7", "addr_stree": null, "addr_city": null, "name": "Bento Kopi Jember", "internet_2": "wlan", "cuisine": "coffee_shop", "building": "yes", "reservatio": null, "diet_halal": null, "layer": "Centroids", "path": "Point?crs=EPSG:4326&field=full_id:string(0,0)&field=osm_id:string(0,0)&field=osm_type:string(0,0)&field=osm_version:string(0,0)&field=osm_timestamp:string(0,0)&field=osm_uid:string(0,0)&field=osm_user:string(0,0)&field=osm_changeset:string(0,0)&field=ame" }, "geometry": { "type": "Point", "coordinates": [ 801258.694742038846016, 9098143.714401388540864 ] } },
{ "type": "Feature", "properties": { "full_id": "w1225927185", "osm_id": "1225927185", "osm_type": "way", "osm_versio": "1", "osm_timest": "2023-11-22T15:13:03.000", "osm_uid": "20108107", "osm_user": null, "osm_change": "144330452", "amenity": "cafe", "wheelchair": null, "website": null, "takeaway": null, "start_date": null, "payment_ca": null, "outdoor_se": null, "min_age": null, "internet_a": null, "internet_1": null, "ele": null, "descriptio": null, "delivery": null, "capacity": null, "brand": null, "addr_postc": null, "addr_house": null, "smoking": null, "opening_ho": null, "addr_stree": null, "addr_city": null, "name": "Firmisu Kopi", "internet_2": null, "cuisine": "coffee_shop", "building": "yes", "reservatio": null, "diet_halal": null, "layer": "Centroids", "path": "Point?crs=EPSG:4326&field=full_id:string(0,0)&field=osm_id:string(0,0)&field=osm_type:string(0,0)&field=osm_version:string(0,0)&field=osm_timestamp:string(0,0)&field=osm_uid:string(0,0)&field=osm_user:string(0,0)&field=osm_changeset:string(0,0)&field=ame" }, "geometry": { "type": "Point", "coordinates": [ 801410.460623193299398, 9098083.011843590065837 ] } },
{ "type": "Feature", "properties": { "full_id": "w1226206585", "osm_id": "1226206585", "osm_type": "way", "osm_versio": "1", "osm_timest": "2023-11-23T14:20:18.000", "osm_uid": "20108107", "osm_user": null, "osm_change": "144371725", "amenity": "cafe", "wheelchair": null, "website": null, "takeaway": null, "start_date": null, "payment_ca": null, "outdoor_se": null, "min_age": null, "internet_a": null, "internet_1": null, "ele": null, "descriptio": null, "delivery": null, "capacity": null, "brand": null, "addr_postc": null, "addr_house": null, "smoking": null, "opening_ho": "24/7", "addr_stree": null, "addr_city": null, "name": "NUansa Coffee", "internet_2": "wlan", "cuisine": "coffee_shop", "building": "yes", "reservatio": null, "diet_halal": null, "layer": "Centroids", "path": "Point?crs=EPSG:4326&field=full_id:string(0,0)&field=osm_id:string(0,0)&field=osm_type:string(0,0)&field=osm_version:string(0,0)&field=osm_timestamp:string(0,0)&field=osm_uid:string(0,0)&field=osm_user:string(0,0)&field=osm_changeset:string(0,0)&field=cui" }, "geometry": { "type": "Point", "coordinates": [ 800581.694567179773003, 9095162.650910621508956 ] } },
{ "type": "Feature", "properties": { "full_id": "w1288726198", "osm_id": "1288726198", "osm_type": "way", "osm_versio": "1", "osm_timest": "2024-06-01T15:11:20.000", "osm_uid": "20108107", "osm_user": null, "osm_change": "152126119", "amenity": "cafe", "wheelchair": null, "website": null, "takeaway": null, "start_date": null, "payment_ca": null, "outdoor_se": null, "min_age": null, "internet_a": null, "internet_1": null, "ele": null, "descriptio": null, "delivery": null, "capacity": null, "brand": null, "addr_postc": null, "addr_house": null, "smoking": null, "opening_ho": null, "addr_stree": null, "addr_city": null, "name": "Kopi Boss Jember", "internet_2": null, "cuisine": "coffee_shop", "building": "yes", "reservatio": null, "diet_halal": null, "layer": "Centroids", "path": "Point?crs=EPSG:4326&field=full_id:string(0,0)&field=osm_id:string(0,0)&field=osm_type:string(0,0)&field=osm_version:string(0,0)&field=osm_timestamp:string(0,0)&field=osm_uid:string(0,0)&field=osm_user:string(0,0)&field=osm_changeset:string(0,0)&field=cui" }, "geometry": { "type": "Point", "coordinates": [ 800982.218854402657598, 9095431.637418417260051 ] } },
{ "type": "Feature", "properties": { "full_id": "w1226206585", "osm_id": "1226206585", "osm_type": "way", "osm_versio": "1", "osm_timest": "2023-11-23T14:20:18.000", "osm_uid": "20108107", "osm_user": null, "osm_change": "144371725", "amenity": "cafe", "wheelchair": null, "website": null, "takeaway": null, "start_date": null, "payment_ca": null, "outdoor_se": null, "min_age": null, "internet_a": null, "internet_1": null, "ele": null, "descriptio": null, "delivery": null, "capacity": null, "brand": null, "addr_postc": null, "addr_house": null, "smoking": null, "opening_ho": "24/7", "addr_stree": null, "addr_city": null, "name": "NUansa Coffee", "internet_2": "wlan", "cuisine": "coffee_shop", "building": "yes", "reservatio": null, "diet_halal": null, "layer": "Centroids", "path": "Point?crs=EPSG:4326&field=full_id:string(0,0)&field=osm_id:string(0,0)&field=osm_type:string(0,0)&field=osm_version:string(0,0)&field=osm_timestamp:string(0,0)&field=osm_uid:string(0,0)&field=osm_user:string(0,0)&field=osm_changeset:string(0,0)&field=ame" }, "geometry": { "type": "Point", "coordinates": [ 800581.694567179773003, 9095162.650910621508956 ] } },
{ "type": "Feature", "properties": { "full_id": "w1226206776", "osm_id": "1226206776", "osm_type": "way", "osm_versio": "1", "osm_timest": "2023-11-23T14:21:29.000", "osm_uid": "20108107", "osm_user": null, "osm_change": "144371770", "amenity": "cafe", "wheelchair": null, "website": null, "takeaway": null, "start_date": null, "payment_ca": null, "outdoor_se": null, "min_age": null, "internet_a": null, "internet_1": null, "ele": null, "descriptio": null, "delivery": null, "capacity": null, "brand": null, "addr_postc": null, "addr_house": null, "smoking": null, "opening_ho": null, "addr_stree": null, "addr_city": null, "name": "50 : 50 coffee", "internet_2": null, "cuisine": null, "building": "yes", "reservatio": null, "diet_halal": null, "layer": "Centroids", "path": "Point?crs=EPSG:4326&field=full_id:string(0,0)&field=osm_id:string(0,0)&field=osm_type:string(0,0)&field=osm_version:string(0,0)&field=osm_timestamp:string(0,0)&field=osm_uid:string(0,0)&field=osm_user:string(0,0)&field=osm_changeset:string(0,0)&field=ame" }, "geometry": { "type": "Point", "coordinates": [ 800600.242310832021758, 9095154.029715480282903 ] } },
{ "type": "Feature", "properties": { "full_id": "w1288726198", "osm_id": "1288726198", "osm_type": "way", "osm_versio": "1", "osm_timest": "2024-06-01T15:11:20.000", "osm_uid": "20108107", "osm_user": null, "osm_change": "152126119", "amenity": "cafe", "wheelchair": null, "website": null, "takeaway": null, "start_date": null, "payment_ca": null, "outdoor_se": null, "min_age": null, "internet_a": null, "internet_1": null, "ele": null, "descriptio": null, "delivery": null, "capacity": null, "brand": null, "addr_postc": null, "addr_house": null, "smoking": null, "opening_ho": null, "addr_stree": null, "addr_city": null, "name": "Kopi Boss Jember", "internet_2": null, "cuisine": "coffee_shop", "building": "yes", "reservatio": null, "diet_halal": null, "layer": "Centroids", "path": "Point?crs=EPSG:4326&field=full_id:string(0,0)&field=osm_id:string(0,0)&field=osm_type:string(0,0)&field=osm_version:string(0,0)&field=osm_timestamp:string(0,0)&field=osm_uid:string(0,0)&field=osm_user:string(0,0)&field=osm_changeset:string(0,0)&field=ame" }, "geometry": { "type": "Point", "coordinates": [ 800982.218854402657598, 9095431.637418417260051 ] } }
]
}
